{
  "type": "FeatureCollection",
  "features": [
    {
      "type": "Feature",
      "properties": {
        "norad_id": 38857,
        "name": "GSAT0103 (GALILEO-FM3)",
        "group": "gnss",
        "lat": 47.421285291613664,
        "lon": 154.87622518222338,
        "alt_km": 23222.84392726584,
        "timestamp": "2025-12-03T15:48:03.315713+00:00",
        "meta_object_name": "GSAT0103 (GALILEO-FM3)",
        "meta_object_id": "2012-055A",
        "meta_epoch": "2025-12-01T05:01:21.613152",
        "meta_mean_motion": 1.70473256,
        "meta_eccentricity": 0.00023005,
        "meta_inclination": 55.6823,
        "meta_ra_of_asc_node": 106.9832,
        "meta_arg_of_pericenter": 267.1494,
        "meta_mean_anomaly": 92.7944,
        "meta_ephemeris_type": 0,
        "meta_classification_type": "U",
        "meta_norad_cat_id": 38857,
        "meta_element_set_no": 999,
        "meta_rev_at_epoch": 8163,
        "meta_bstar": 0,
        "meta_mean_motion_dot": 4.2e-07,
        "meta_mean_motion_ddot": 0,
        "tle_line1": "1 38857U 12055A   25335.20927793  .00000042  00000+0  00000+0 0  9995",
        "tle_line2": "2 38857  55.6823 106.9832 0002300 267.1494  92.7944  1.70473256 81637"
      },
      "geometry": {
        "type": "Point",
        "coordinates": [
          154.87622518222338,
          47.421285291613664
        ]
      }
    },
    {
      "type": "Feature",
      "properties": {
        "norad_id": 38953,
        "name": "BEIDOU-2 G6 (C02)",
        "group": "gnss",
        "lat": -2.588462685775305,
        "lon": 33.89304580774232,
        "alt_km": 35759.470383945285,
        "timestamp": "2025-12-03T15:48:03.315725+00:00",
        "meta_object_name": "BEIDOU-2 G6 (C02)",
        "meta_object_id": "2012-059A",
        "meta_epoch": "2025-12-03T03:52:58.597248",
        "meta_mean_motion": 1.00270749,
        "meta_eccentricity": 0.00073271,
        "meta_inclination": 3.923,
        "meta_ra_of_asc_node": 75.5961,
        "meta_arg_of_pericenter": 290.2404,
        "meta_mean_anomaly": 208.7134,
        "meta_ephemeris_type": 0,
        "meta_classification_type": "U",
        "meta_norad_cat_id": 38953,
        "meta_element_set_no": 999,
        "meta_rev_at_epoch": 4794,
        "meta_bstar": 0,
        "meta_mean_motion_dot": -1.58e-06,
        "meta_mean_motion_ddot": 0,
        "tle_line1": "1 38953U 12059A   25337.16178932 -.00000158  00000+0  00000+0 0  9995",
        "tle_line2": "2 38953   3.9230  75.5961 0007327 290.2404 208.7134  1.00270749 47949"
      },
      "geometry": {
        "type": "Point",
        "coordinates": [
          33.89304580774232,
          -2.588462685775305
        ]
      }
    },
    {
      "type": "Feature",
      "properties": {
        "norad_id": 38977,
        "name": "LUCH 5B (SDCM/PRN 125)",
        "group": "gnss",
        "lat": -8.859580498817323,
        "lon": -66.93773244317576,
        "alt_km": 35768.1362753879,
        "timestamp": "2025-12-03T15:48:03.315736+00:00",
        "meta_object_name": "LUCH 5B (SDCM/PRN 125)",
        "meta_object_id": "2012-061A",
        "meta_epoch": "2025-12-03T09:09:54.984096",
        "meta_mean_motion": 1.00268889,
        "meta_eccentricity": 0.00076168,
        "meta_inclination": 10.06,
        "meta_ra_of_asc_node": 51.7901,
        "meta_arg_of_pericenter": 189.6576,
        "meta_mean_anomaly": 312.1231,
        "meta_ephemeris_type": 0,
        "meta_classification_type": "U",
        "meta_norad_cat_id": 38977,
        "meta_element_set_no": 999,
        "meta_rev_at_epoch": 4764,
        "meta_bstar": 0,
        "meta_mean_motion_dot": -1.27e-06,
        "meta_mean_motion_ddot": 0,
        "tle_line1": "1 38977U 12061A   25337.38188639 -.00000127  00000+0  00000+0 0  9999",
        "tle_line2": "2 38977  10.0600  51.7901 0007616 189.6576 312.1231  1.00268889 47644"
      },
      "geometry": {
        "type": "Point",
        "coordinates": [
          -66.93773244317576,
          -8.859580498817323
        ]
      }
    },
    {
      "type": "Feature",
      "properties": {
        "norad_id": 39155,
        "name": "COSMOS 2485 (747)",
        "group": "gnss",
        "lat": -27.52385717295581,
        "lon": 66.32351509837946,
        "alt_km": 19144.9046590459,
        "timestamp": "2025-12-03T15:48:03.315747+00:00",
        "meta_object_name": "COSMOS 2485 (747)",
        "meta_object_id": "2013-019A",
        "meta_epoch": "2025-12-02T06:58:21.505152",
        "meta_mean_motion": 2.13102877,
        "meta_eccentricity": 0.00245683,
        "meta_inclination": 65.3079,
        "meta_ra_of_asc_node": 80.2187,
        "meta_arg_of_pericenter": 229.0905,
        "meta_mean_anomaly": 130.6936,
        "meta_ephemeris_type": 0,
        "meta_classification_type": "U",
        "meta_norad_cat_id": 39155,
        "meta_element_set_no": 999,
        "meta_rev_at_epoch": 9808,
        "meta_bstar": 0,
        "meta_mean_motion_dot": -1.8e-07,
        "meta_mean_motion_ddot": 0,
        "tle_line1": "1 39155U 13019A   25336.29052668 -.00000018  00000+0  00000+0 0  9992",
        "tle_line2": "2 39155  65.3079  80.2187 0024568 229.0905 130.6936  2.13102877 98087"
      },
      "geometry": {
        "type": "Point",
        "coordinates": [
          66.32351509837946,
          -27.52385717295581
        ]
      }
    },
    {
      "type": "Feature",
      "properties": {
        "norad_id": 39166,
        "name": "GPS BIIF-4  (PRN 27)",
        "group": "gnss",
        "lat": -44.85517472450339,
        "lon": -127.91891222378908,
        "alt_km": 20297.24155137486,
        "timestamp": "2025-12-03T15:48:03.315757+00:00",
        "meta_object_name": "GPS BIIF-4  (PRN 27)",
        "meta_object_id": "2013-023A",
        "meta_epoch": "2025-12-02T17:50:49.750368",
        "meta_mean_motion": 2.00565046,
        "meta_eccentricity": 0.01372969,
        "meta_inclination": 54.6608,
        "meta_ra_of_asc_node": 276.9746,
        "meta_arg_of_pericenter": 48.5033,
        "meta_mean_anomaly": 312.6627,
        "meta_ephemeris_type": 0,
        "meta_classification_type": "U",
        "meta_norad_cat_id": 39166,
        "meta_element_set_no": 999,
        "meta_rev_at_epoch": 9194,
        "meta_bstar": 0,
        "meta_mean_motion_dot": -3.8e-07,
        "meta_mean_motion_ddot": 0,
        "tle_line1": "1 39166U 13023A   25336.74363137 -.00000038  00000+0  00000+0 0  9997",
        "tle_line2": "2 39166  54.6608 276.9746 0137296  48.5033 312.6627  2.00565046 91946"
      },
      "geometry": {
        "type": "Point",
        "coordinates": [
          -127.91891222378908,
          -44.85517472450339
        ]
      }
    },
    {
      "type": "Feature",
      "properties": {
        "norad_id": 39199,
        "name": "IRNSS-1A",
        "group": "gnss",
        "lat": -30.525782283565746,
        "lon": 10.322013122496964,
        "alt_km": 35823.7997584381,
        "timestamp": "2025-12-03T15:48:03.315768+00:00",
        "meta_object_name": "IRNSS-1A",
        "meta_object_id": "2013-034A",
        "meta_epoch": "2025-12-02T19:49:26.431104",
        "meta_mean_motion": 1.00279053,
        "meta_eccentricity": 0.00216608,
        "meta_inclination": 35.2852,
        "meta_ra_of_asc_node": 66.6964,
        "meta_arg_of_pericenter": 185.4059,
        "meta_mean_anomaly": 172.3398,
        "meta_ephemeris_type": 0,
        "meta_classification_type": "U",
        "meta_norad_cat_id": 39199,
        "meta_element_set_no": 999,
        "meta_rev_at_epoch": 4539,
        "meta_bstar": 0,
        "meta_mean_motion_dot": 6.5e-07,
        "meta_mean_motion_ddot": 0,
        "tle_line1": "1 39199U 13034A   25336.82600036  .00000065  00000+0  00000+0 0  9995",
        "tle_line2": "2 39199  35.2852  66.6964 0021660 185.4059 172.3398  1.00279053 45393"
      },
      "geometry": {
        "type": "Point",
        "coordinates": [
          10.322013122496964,
          -30.525782283565746
        ]
      }
    },
    {
      "type": "Feature",
      "properties": {
        "norad_id": 39533,
        "name": "GPS BIIF-5  (PRN 30)",
        "group": "gnss",
        "lat": -41.440063067920335,
        "lon": 116.67405561991738,
        "alt_km": 20141.856547729098,
        "timestamp": "2025-12-03T15:48:03.315778+00:00",
        "meta_object_name": "GPS BIIF-5  (PRN 30)",
        "meta_object_id": "2014-008A",
        "meta_epoch": "2025-12-02T17:43:01.654176",
        "meta_mean_motion": 2.00573776,
        "meta_eccentricity": 0.00789617,
        "meta_inclination": 53.6297,
        "meta_ra_of_asc_node": 157.3327,
        "meta_arg_of_pericenter": 226.3697,
        "meta_mean_anomaly": 133.0142,
        "meta_ephemeris_type": 0,
        "meta_classification_type": "U",
        "meta_norad_cat_id": 39533,
        "meta_element_set_no": 999,
        "meta_rev_at_epoch": 8574,
        "meta_bstar": 0,
        "meta_mean_motion_dot": 1.12e-06,
        "meta_mean_motion_ddot": 0,
        "tle_line1": "1 39533U 14008A   25336.73821359  .00000112  00000+0  00000+0 0  9995",
        "tle_line2": "2 39533  53.6297 157.3327 0078961 226.3697 133.0142  2.00573776 85746"
      },
      "geometry": {
        "type": "Point",
        "coordinates": [
          116.67405561991738,
          -41.440063067920335
        ]
      }
    }
  ]
}